AEROCUBE 8D             
1 41852U 16067E   25097.07532292  .00014658  00000+0  75762-3 0  9996
2 41852  98.1140 290.3912 0004348 182.2979 177.8233 15.16385300459807
AEROCUBE 8C             
1 41853U 16067F   25096.95407098  .00014356  00000+0  73977-3 0  9999
2 41853  98.0982 288.1744 0007274 121.9766 238.2173 15.16483583459777
PROMETHEUS 2-1          
1 41854U 16067G   25096.63333705  .00053444  00000+0  12555-2 0  9993
2 41854  98.0870 302.7776 0008043 122.5446 237.6577 15.41809937460539
PROMETHEUS 2-3          
1 41855U 16067H   25096.83667933  .00064743  00000+0  15196-2 0  9997
2 41855  98.0817 302.2180 0007044 131.0121 229.1734 15.41790707460568
CORVUS BC2              
1 42846U 17042X   25096.91684589  .00007555  00000+0  57509-3 0  9990
2 42846  97.3662 272.6060 0014243 157.5159 202.6693 15.02282677421475
CORVUS BC1              
1 42847U 17042Y   25096.91171166  .00008327  00000+0  62944-3 0  9990
2 42847  97.3710 273.0792 0012998 137.1175 223.1067 15.02528604421492
MIRATA                  
1 43015U 17073C   25097.20540349  .00093584  00000+0  19836-2 0  9998
2 43015  97.5495 349.6132 0095050 316.0077  43.3630 15.39977028401022
MAKERSAT 0              
1 43016U 17073D   25096.65527762  .00028597  00000+0  12033-2 0  9995
2 43016  97.5296 335.5206 0153302   2.2123 357.9752 15.13202006400060
SIRION PATHFINDER-2     
1 43759U 18099B   25096.94503683  .00010139  00000+0  64373-3 0  9994
2 43759  97.4857 151.4094 0009753  14.7915 345.3598 15.09022690346717
CORVUS BC4              
1 43767U 18099K   25096.71568130  .00007828  00000+0  51748-3 0  9999
2 43767  97.4674 147.2969 0010727  69.4543 290.7836 15.07600606346539
MOVE-II                 
1 43780U 18099Y   25096.94633722  .00146617  00000+0  22515-2 0  9998
2 43780  97.4719 168.8497 0000633 301.4756  58.6435 15.53753050347854
SPACEBEE-7              
1 43816U 18099BL  25096.94437036  .00044490  00000+0  14491-2 0  9998
2 43816  97.5019 166.1685 0005134 344.0406  16.0673 15.31691506347040
SHIELDS 1               
1 43850U 18104B   25097.21055848  .00046141  00000+0  65289-3 0  9998
2 43850  85.0129  81.0236 0009477  54.6406 305.5739 15.56272141351587
SONATE                  
1 44400U 19038Q   25097.03509374  .00141735  00000+0  11506-2 0  9992
2 44400  97.7026 116.5794 0010597 123.5593 236.6682 15.70220108319538
DUCHIFAT-3              
1 44854U 19089C   25097.17371526  .00071050  00000+0  17133-2 0  9996
2 44854  36.9467  36.5854 0002882 324.3681  35.6881 15.40122046293145
M2 PATHFINDER           
1 45727U 20037E   25097.04974693  .00008509  00000+0  65947-3 0  9997
2 45727  97.8135 279.2447 0012147 190.9861 169.1099 15.01604435259970
NETSAT-4                
1 46504U 20068U   25097.14570723  .00026296  00000+0  95982-3 0  9997
2 46504  97.8414  71.5086 0010402  72.0370 288.2001 15.28065482248856
NETSAT-3                
1 46505U 20068V   25096.88344286  .00024295  00000+0  92213-3 0  9992
2 46505  97.8410  70.3188 0010000  80.6025 279.6343 15.26795027248787
NETSAT-1                
1 46506U 20068W   25096.87810644  .00018620  00000+0  80310-3 0  9998
2 46506  97.8433  68.5807 0009352  90.8340 269.3967 15.22563000248666
NETSAT-2                
1 46507U 20068X   25096.85875868  .00025470  00000+0  93958-3 0  9999
2 46507  97.8412  70.7325 0008612  93.3347 266.8876 15.27738315248756
WILDTRACKCUBE-SIMBA     
1 47941U 21022K   25097.23253791  .00043619  00000+0  10559-2 0  9991
2 47941  97.4287   0.5129 0011081 166.7657 193.3882 15.40920638223425
GRBALPHA                
1 47959U 21022AD  25097.12703612  .00195190  00000+0  18059-2 0  9995
2 47959  97.4231   7.0194 0009779 138.1929 222.0080 15.66862409222667
LEDSAT                  
1 49069U 21073D   25097.17093118  .00077848  00000+0  12955-2 0  9991
2 49069  97.3937 176.4664 0010426 302.0843  57.9396 15.51712941201575
ROBUSTA-1F (MTCUBE 2)   
1 53109U 22080E   25096.93559592 -.00000003  00000+0  00000+0 0  9991
2 53109  70.1211  89.9569 0008571  21.0997 339.0015  6.42584455 64034
SITRO-AIS 5 (KATYS)     
1 57176U 23091L   25097.18761202  .00016975  00000+0  83032-3 0  9997
2 57176  97.5658 154.0794 0015028 184.7360 175.3734 15.18179587 97955
SITRO-AIS 6 (CHIRKIN)   
1 57192U 23091AC  25097.17147039  .00018108  00000+0  88724-3 0  9993
2 57192  97.5657 154.0830 0014934 184.5583 175.5517 15.18107895 97957
SITRO-AIS 8 (ANOKHIN)   
1 57193U 23091AD  25097.20025877  .00019113  00000+0  90399-3 0  9991
2 57193  97.5655 154.4900 0014507 183.9358 176.1764 15.19328585 97983
SITRO-AIS 7 (FARTUSHNIY)
1 57194U 23091AE  25097.18931510  .00016771  00000+0  82417-3 0  9998
2 57194  97.5654 154.0491 0014807 185.0397 175.0690 15.18023651 97951
SITRO-AIS 10 (BURDAEV)  
1 57199U 23091AK  25097.18356951  .00023829  00000+0  10314-2 0  9991
2 57199  97.5664 156.4730 0010718 168.4999 191.6484 15.22371486 98109
SITRO-AIS 9 (SHCHUKIN)  
1 57201U 23091AM  25097.19423096  .00021846  00000+0  95017-3 0  9992
2 57201  97.5660 156.4180 0010639 168.4337 191.7145 15.22225309 98103
SITRO-AIS 12 (SMIRENNIY)
1 57204U 23091AQ  25097.18476578  .00023245  00000+0  10046-2 0  9990
2 57204  97.5668 156.6623 0010654 162.8880 197.2718 15.22429090 98117
SITRO-AIS 11 (SHEFFER)  
1 57208U 23091AU  25097.21114089  .00021938  00000+0  94370-3 0  9994
2 57208  97.5666 156.7613 0010584 162.5620 197.5981 15.22601645 98124
VERONIKA                
1 58261U 23174F   25097.17910936  .00116110  00000+0  17347-2 0  9991
2 58261  97.4176 180.3168 0007179 257.1483 102.8969 15.54598023 78786
ROBUSTA-1E (ENSO)       
1 58470U 23185J   25097.20557180  .00065639  00000+0  12368-2 0  9994
2 58470  97.3790 170.6231 0006415 299.3593  60.7017 15.48266009 75203
SITRO-AIS 29            
1 59052U 24039B   25097.18783469  .00325623  00000+0  17703-2 0  9998
2 59052  97.4120  70.8328 0008106 164.0214 196.1310 15.79063366 61988
SITRO-AIS 30            
1 59053U 24039C   25097.17417813  .00269566  00000+0  16871-2 0  9993
2 59053  97.4127  70.5277 0007766 170.2374 189.9044 15.76026200 61957
SITRO-AIS 31            
1 59054U 24039D   25097.20572706  .00304569  00000+0  17370-2 0  9999
2 59054  97.4132  70.8140 0007689 168.1251 192.0198 15.78048729 61991
SITRO-AIS 33            
1 59055U 24039E   25097.16979071  .00306778  00000+0  17181-2 0  9995
2 59055  97.4127  70.8599 0007882 166.3636 193.7845 15.78449816 61984
SITRO-AIS 35            
1 59056U 24039F   25097.14829458  .00330468  00000+0  17996-2 0  9994
2 59056  97.4128  70.8972 0007379 164.0116 196.1385 15.79020911 61988
SITRO-AIS 32            
1 59057U 24039G   25097.17805145  .00285229  00000+0  17163-2 0  9995
2 59057  97.4141  70.7134 0007574 168.2953 191.8490 15.76885671 61972
SITRO-AIS 34            
1 59058U 24039H   25097.17193982  .00318097  00000+0  17786-2 0  9996
2 59058  97.4128  70.8633 0007792 165.3461 194.8033 15.78457639 61985
SITRO-AIS 36            
1 59059U 24039J   25097.15698033  .00289304  00000+0  16787-2 0  9990
2 59059  97.4123  70.8629 0007411 163.6535 196.4972 15.77701306 61989
SITRO-AIS 49            
1 59060U 24039K   25097.21742721  .00281596  00000+0  17185-2 0  9991
2 59060  97.4131  70.7959 0007623 166.8233 193.3233 15.76573089 61980
SITRO-AIS 50            
1 59061U 24039L   25097.18230855  .00353127  00000+0  17848-2 0  9994
2 59061  97.4106  71.1301 0008162 162.3855 197.7697 15.80608637 62008
SITRO-AIS 51            
1 59062U 24039M   25097.03182427  .00343863  00000+0  17031-2 0  9990
2 59062  97.4108  71.0271 0008095 162.6396 197.5151 15.81077422 61986
SITRO-AIS 52            
1 59063U 24039N   25097.19405411  .00373061  00000+0  18028-2 0  9999
2 59063  97.4117  71.2886 0007896 162.6332 197.5208 15.81543775 62016
SITRO-AIS 25            
1 59066U 24039R   25097.21317729  .00007866  00000+0  67147-3 0  9993
2 59066  95.3780 296.9190 0158805  47.6618 313.7931 14.88488042 59766
SITRO-AIS 26            
1 59067U 24039S   25097.16558606  .00007688  00000+0  65839-3 0  9997
2 59067  95.3783 296.8555 0159089  48.0309 313.4341 14.88342088 59751
SITRO-AIS 27            
1 59068U 24039T   25097.17425823  .00007876  00000+0  66999-3 0  9990
2 59068  95.3785 296.9632 0158374  47.4656 313.9814 14.88659901 59761
SITRO-AIS 28            
1 59071U 24039U   25097.16306059  .00008124  00000+0  69066-3 0  9997
2 59071  95.3785 296.9782 0158195  47.4276 314.0171 14.88699178 59768
GRBBETA                 
1 60237U 24128C   25096.90529102  .00008585  00000+0  65418-3 0  9997
2 60237  61.9922 301.4580 0045850  43.8061 316.6652 15.01881315 40639
OOV-CUBE (TUBSAT-30)    
1 60240U 24128F   25096.93609664  .00005439  00000+0  44467-3 0  9992
2 60240  61.9968 303.3475 0045148  40.2010 320.2404 14.99770161 40618
ROBUSTA-3A (MEDITERRAN*)
1 60243U 24128J   25096.95484138  .00012282  00000+0  89211-3 0  9994
2 60243  61.9892 301.0542 0044068  37.1568 323.2559 15.03450507 40653
LASARSAT                
1 62391U 24247Q   25096.50580112  .00023209  00000+0  96687-3 0  9998
2 62391  44.9906 148.3473 0006342   9.5739 350.5263 15.23372199 16286
CROCUBE                 
1 62394U 24247T   25096.50625444  .00024856  00000+0  10313-2 0  9999
2 62394  44.9906 148.3447 0006975  10.9401 349.1631 15.23470637 16283
